NORAD_CAT_ID,OBJECT_NAME,OBJECT_TYPE,EPOCH,MEAN_MOTION,ECCENTRICITY,INCLINATION,RA_OF_ASC_NODE,ARG_OF_PERICENTER,MEAN_ANOMALY,BSTAR,MEAN_MOTION_DOT,MEAN_MOTION_DDOT,TLE_LINE0,TLE_LINE1,TLE_LINE2,SEMIMAJOR_AXIS,PERIOD,APOGEE,PERIGEE,DECAYED
55423.0,STARLINK-5068,PAYLOAD,2023-07-29 18:25:58,14.9833691,0.0003592,70.0008,329.6421,273.2928,86.782,0.00013934,1.57e-05,0.0,0 STARLINK-5068,1 55423U 23014AJ  23210.76803730  .00001570  00000-0  13934-3 0  9997,2 55423  70.0008 329.6421 0003592 273.2928  86.7820 14.98336910 27739,6950.172,96.107,574.533,569.54,0.0
55423.0,STARLINK-5068,PAYLOAD,2023-07-30 10:27:20,14.98323229,0.0003324,70.0009,327.9592,270.585,89.4928,-1.7174e-05,-2.98e-06,0.0,0 STARLINK-5068,1 55423U 23014AJ  23211.43564983 -.00000298  00000-0 -17174-4 0  9995,2 55423  70.0009 327.9592 0003324 270.5850  89.4928 14.98323229 27836,6950.214,96.107,574.389,569.769,0.0
55423.0,STARLINK-5068,PAYLOAD,2023-07-30 16:51:51,14.98332373,0.0003614,70.001,327.2856,270.5962,89.4783,1.3633e-06,-7.7e-07,0.0,0 STARLINK-5068,1 55423U 23014AJ  23211.70268335 -.00000077  00000-0  13633-5 0  9998,2 55423  70.0010 327.2856 0003614 270.5962  89.4783 14.98332373 27873,6950.186,96.107,574.562,569.539,0.0
55423.0,STARLINK-5068,PAYLOAD,2023-07-31 16:53:52,14.98334069,0.0003449,70.0014,324.7619,272.8816,87.1948,-8.3814e-06,-1.93e-06,0.0,0 STARLINK-5068,1 55423U 23014AJ  23212.70408160 -.00000193  00000-0 -83814-5 0  9999,2 55423  70.0014 324.7619 0003449 272.8816  87.1948 14.98334069 28025,6950.18,96.107,574.442,569.648,0.0
55423.0,STARLINK-5068,PAYLOAD,2023-08-01 10:31:21,14.98325234,0.0003548,70.0009,322.9101,271.0675,89.0078,-1.8305e-05,-3.11e-06,0.0,0 STARLINK-5068,1 55423U 23014AJ  23213.43844706 -.00000311  00000-0 -18305-4 0  9994,2 55423  70.0009 322.9101 0003548 271.0675  89.0078 14.98325234 28130,6950.208,96.107,574.539,569.607,0.0
55423.0,STARLINK-5068,PAYLOAD,2023-08-02 10:33:22,14.98329563,0.0003435,70.0012,320.3862,267.8725,92.2041,9.5133e-06,2e-07,0.0,0 STARLINK-5068,1 55423U 23014AJ  23214.43984443  .00000020  00000-0  95133-5 0  9998,2 55423  70.0012 320.3862 0003435 267.8725  92.2041 14.98329563 28285,6950.194,96.107,574.447,569.672,0.0
55423.0,STARLINK-5068,PAYLOAD,2023-08-02 16:57:54,14.9833578,0.0003379,70.0013,319.7133,266.0034,94.0739,4.5422e-05,4.49e-06,0.0,0 STARLINK-5068,1 55423U 23014AJ  23214.70687898  .00000449  00000-0  45422-4 0  9992,2 55423  70.0013 319.7133 0003379 266.0034  94.0739 14.98335780 28327,6950.175,96.107,574.388,569.692,0.0
55423.0,STARLINK-5068,PAYLOAD,2023-08-03 16:59:55,14.9833281,0.000337,70.0013,317.1872,266.4507,93.6266,7.4626e-05,7.98e-06,0.0,0 STARLINK-5068,1 55423U 23014AJ  23215.70827791  .00000798  00000-0  74626-4 0  9996,2 55423  70.0013 317.1872 0003370 266.4507  93.6266 14.98332810 28476,6950.184,96.107,574.391,569.707,0.0
55423.0,STARLINK-5068,PAYLOAD,2023-08-04 10:37:24,14.98327337,0.0003258,70.0022,315.3368,266.2464,93.8323,-4.0631e-05,-5.78e-06,0.0,0 STARLINK-5068,1 55423U 23014AJ  23216.44264464 -.00000578  00000-0 -40631-4 0  9997,2 55423  70.0022 315.3368 0003258 266.2464  93.8323 14.98327337 28587,6950.201,96.107,574.331,569.802,0.0
55423.0,STARLINK-5068,PAYLOAD,2023-08-05 10:39:26,14.9831958,0.0003157,70.0017,312.812,266.9856,93.0942,-5.163e-05,-7.09e-06,0.0,0 STARLINK-5068,1 55423U 23014AJ  23217.44405205 -.00000709  00000-0 -51630-4 0  9995,2 55423  70.0017 312.8120 0003157 266.9856  93.0942 14.98319580 28736,6950.225,96.108,574.284,569.896,0.0
55423.0,STARLINK-5068,PAYLOAD,2023-08-05 23:28:30,14.9832441,0.0003259,70.0012,311.465,273.246,86.8326,1.8591e-05,1.29e-06,0.0,0 STARLINK-5068,1 55423U 23014AJ  23217.97812963  .00000129  00000-0  18591-4 0  9999,2 55423  70.0012 311.4650 0003259 273.2460  86.8326 14.98324410 28812,6950.21,96.107,574.34,569.81,0.0
55423.0,STARLINK-5068,PAYLOAD,2023-08-06 23:30:30,14.98328067,0.0003695,70.0004,308.9396,259.8585,100.2157,0.00010191,1.123e-05,0.0,0 STARLINK-5068,1 55423U 23014AJ  23218.97952494  .00001123  00000-0  10191-3 0  9996,2 55423  70.0004 308.9396 0003695 259.8585 100.2157 14.98328067 28964,6950.199,96.107,574.632,569.496,0.0
55423.0,STARLINK-5068,PAYLOAD,2023-08-07 23:32:32,14.98306649,0.0003405,70.0003,306.4147,270.0409,90.036,0.00048156,5.654e-05,0.0,0 STARLINK-5068,1 55423U 23014AJ  23219.98093122  .00005654  00000-0  48156-3 0  9997,2 55423  70.0003 306.4147 0003405 270.0409  90.0360 14.98306649 29111,6950.265,96.108,574.497,569.764,0.0
55423.0,STARLINK-5068,PAYLOAD,2023-08-08 05:57:04,14.98323417,0.0003689,70.0003,305.7415,269.0141,91.0595,0.0001492,1.687e-05,0.0,0 STARLINK-5068,1 55423U 23014AJ  23220.24796575  .00001687  00000-0  14920-3 0  9994,2 55423  70.0003 305.7415 0003689 269.0141  91.0595 14.98323417 29153,6950.213,96.107,574.642,569.514,0.0
55423.0,STARLINK-5068,PAYLOAD,2023-08-08 23:34:31,14.98355643,0.0003701,70.0002,303.8901,269.2246,90.8488,-0.00032242,-3.941e-05,0.0,0 STARLINK-5068,1 55423U 23014AJ  23220.98231336 -.00003941  00000-0 -32242-3 0  9998,2 55423  70.0002 303.8901 0003701 269.2246  90.8488 14.98355643 29260,6950.114,96.105,574.551,569.406,0.0
55423.0,STARLINK-5068,PAYLOAD,2023-08-09 09:11:21,14.98318185,0.0003464,70.0004,302.8797,269.0199,91.0563,0.00014294,1.612e-05,0.0,0 STARLINK-5068,1 55423U 23014AJ  23221.38288763  .00001612  00000-0  14294-3 0  9997,2 55423  70.0004 302.8797 0003464 269.0199  91.0563 14.98318185 29329,6950.229,96.108,574.502,569.687,0.0
55423.0,STARLINK-5068,PAYLOAD,2023-08-09 15:35:53,14.98330504,0.0003429,70.0007,302.2068,269.0609,91.0158,-8.1226e-05,-1.062e-05,0.0,0 STARLINK-5068,1 55423U 23014AJ  23221.64992497 -.00001062  00000-0 -81226-4 0  9993,2 55423  70.0007 302.2068 0003429 269.0609  91.0158 14.98330504 29367,6950.191,96.107,574.44,569.673,0.0
55423.0,STARLINK-5068,PAYLOAD,2023-08-10 15:37:53,14.98334766,0.0003465,70.0005,299.6824,269.4359,90.6403,3.6673e-06,-4.9e-07,0.0,0 STARLINK-5068,1 55423U 23014AJ  23222.65131829 -.00000049  00000-0  36673-5 0  9999,2 55423  70.0005 299.6824 0003465 269.4359  90.6403 14.98334766 29519,6950.178,96.107,574.451,569.635,0.0
55423.0,STARLINK-5068,PAYLOAD,2023-08-11 22:04:27,14.98328841,0.0003522,70.0003,296.4839,270.5649,89.5107,1.3885e-05,7.3e-07,0.0,0 STARLINK-5068,1 55423U 23014AJ  23223.91976049  .00000073  00000-0  13885-4 0  9995,2 55423  70.0003 296.4839 0003522 270.5649  89.5107 14.98328841 29703,6950.196,96.107,574.509,569.614,0.0
55423.0,STARLINK-5068,PAYLOAD,2023-08-13 04:31:00,14.98328265,0.0003579,70.0,293.286,269.5426,90.5323,-2.4618e-05,-3.87e-06,0.0,0 STARLINK-5068,1 55423U 23014AJ  23225.18820155 -.00000387  00000-0 -24618-4 0  9998,2 55423  70.0000 293.2860 0003579 269.5426  90.5323 14.98328265 29894,6950.198,96.107,574.551,569.576,0.0
55423.0,STARLINK-5068,PAYLOAD,2023-08-14 10:57:33,14.98330819,0.0003794,69.9994,290.0868,271.2025,88.87,3.7533e-05,3.55e-06,0.0,0 STARLINK-5068,1 55423U 23014AJ  23226.45663891  .00000355  00000-0  37533-4 0  9994,2 55423  69.9994 290.0868 0003794 271.2025  88.8700 14.98330819 30080,6950.19,96.107,574.692,569.418,0.0
55423.0,STARLINK-5068,PAYLOAD,2023-08-15 14:11:50,14.98333735,0.0003681,69.9996,287.2248,270.4953,89.5784,7.0798e-05,7.52e-06,0.0,0 STARLINK-5068,1 55423U 23014AJ  23227.59155445  .00000752  00000-0  70798-4 0  9992,2 55423  69.9996 287.2248 0003681 270.4953  89.5784 14.98333735 30257,6950.181,96.107,574.605,569.488,0.0
55423.0,STARLINK-5068,PAYLOAD,2023-08-16 22:14:31,14.98333158,0.0003687,69.9993,283.8586,268.6839,91.3897,-8.3963e-06,-1.93e-06,0.0,0 STARLINK-5068,1 55423U 23014AJ  23228.92675462 -.00000193  00000-0 -83963-5 0  9996,2 55423  69.9993 283.8586 0003687 268.6839  91.3897 14.98333158 30456,6950.183,96.107,574.611,569.486,0.0
55423.0,STARLINK-5068,PAYLOAD,2023-08-18 09:29:29,14.98326308,0.0003705,69.9989,280.1556,269.4036,90.6698,-3.9082e-05,-5.59e-06,0.0,0 STARLINK-5068,1 55423U 23014AJ  23230.39547845 -.00000559  00000-0 -39082-4 0  9991,2 55423  69.9989 280.1556 0003705 269.4036  90.6698 14.98326308 30671,6950.204,96.107,574.644,569.494,0.0
55423.0,STARLINK-5068,PAYLOAD,2023-08-19 09:31:30,14.98328764,0.00037,69.999,277.6309,268.9295,91.144,6.1857e-06,-1.9e-07,0.0,0 STARLINK-5068,1 55423U 23014AJ  23231.39687571 -.00000019  00000-0  61857-5 0  9999,2 55423  69.9990 277.6309 0003700 268.9295  91.1440 14.98328764 30822,6950.197,96.107,574.633,569.49,0.0
55423.0,STARLINK-5068,PAYLOAD,2023-08-20 11:09:39,14.98326618,0.0003719,69.9989,274.9372,267.4438,92.6296,2.3948e-05,1.93e-06,0.0,0 STARLINK-5068,1 55423U 23014AJ  23232.46503667  .00000193  00000-0  23948-4 0  9991,2 55423  69.9989 274.9372 0003719 267.4438  92.6296 14.98326618 30981,6950.203,96.107,574.653,569.484,0.0
55423.0,STARLINK-5068,PAYLOAD,2023-08-21 12:47:47,14.98333074,0.0003619,69.9987,272.2437,268.6971,91.3773,2.5016e-05,2.05e-06,0.0,0 STARLINK-5068,1 55423U 23014AJ  23233.53319247  .00000205  00000-0  25016-4 0  9991,2 55423  69.9987 272.2437 0003619 268.6971  91.3773 14.98333074 31145,6950.183,96.107,574.564,569.533,0.0
55423.0,STARLINK-5068,PAYLOAD,2023-08-22 09:37:32,14.98366976,0.0003257,69.9989,270.0554,263.3684,96.7105,-0.00064433,-7.78e-05,0.0,0 STARLINK-5068,1 55423U 23014AJ  23234.40106816 -.00007780  00000-0 -64433-3 0  9996,2 55423  69.9989 270.0554 0003257 263.3684  96.7105 14.98366976 31273,6950.079,96.105,574.207,569.68,0.0
55423.0,STARLINK-5068,PAYLOAD,2023-08-23 11:15:41,14.98331429,0.0003621,69.9987,267.3623,269.5795,90.4949,-8.3496e-06,-1.93e-06,0.0,0 STARLINK-5068,1 55423U 23014AJ  23235.46923254 -.00000193  00000-0 -83496-5 0  9999,2 55423  69.9987 267.3623 0003621 269.5795  90.4949 14.98331429 31433,6950.188,96.107,574.57,569.537,0.0
55423.0,STARLINK-5068,PAYLOAD,2023-08-24 11:17:42,14.98328185,0.0003696,69.9984,264.8374,267.3735,92.7001,-7.4279e-06,-1.82e-06,0.0,0 STARLINK-5068,1 55423U 23014AJ  23236.47063360 -.00000182  00000-0 -74279-5 0  9991,2 55423  69.9984 264.8374 0003696 267.3735  92.7001 14.98328185 31582,6950.199,96.107,574.632,569.495,0.0
